OBJECT_NAME,OBJECT_ID,EPOCH,MEAN_MOTION,ECCENTRICITY,INCLINATION,RA_OF_ASC_NODE,ARG_OF_PERICENTER,MEAN_ANOMALY,EPHEMERIS_TYPE,CLASSIFICATION_TYPE,NORAD_CAT_ID,ELEMENT_SET_NO,REV_AT_EPOCH,BSTAR,MEAN_MOTION_DOT,MEAN_MOTION_DDOT
STARLINK-1301,2020-019B,2026-07-13T00:21:22.596768,15.88466514,.0006222,53.0290,200.0077,36.0248,324.1194,0,U,45361,999,35035,.45455E-3,.130452E-2,0
STARLINK-1262,2020-019G,2026-07-12T14:07:29.299584,15.37125174,.0002137,53.1536,303.1664,278.1801,81.8960,0,U,45366,999,34890,.12136E-2,.44627E-3,0
STARLINK-1273,2020-019H,2026-07-13T04:37:51.941856,15.62310559,.0002537,53.0419,269.5106,350.1873,9.9090,0,U,45367,999,34940,.62811E-3,.56393E-3,0
STARLINK-1277,2020-019K,2026-07-13T05:03:17.064288,15.70798940,.0003407,53.0396,261.2588,18.5351,341.5789,0,U,45369,999,34952,.32346E-3,.40621E-3,0
STARLINK-1281,2020-019L,2026-07-12T13:57:12.597120,15.37928291,.0001187,53.1571,302.6347,254.5117,105.5756,0,U,45370,999,34891,.10221E-2,.38487E-3,0
STARLINK-1300,2020-019Q,2026-07-12T13:55:52.322880,15.38524126,.0001782,53.1571,302.4043,264.2001,95.8800,0,U,45374,999,34891,.11102E-2,.42687E-3,0
STARLINK-1302,2020-019R,2026-07-13T04:19:33.917952,15.71037341,.0000823,53.0430,257.2021,79.4861,280.6249,0,U,45375,999,34957,.30635E-3,.38815E-3,0
STARLINK-1304,2020-019S,2026-07-13T05:05:06.982368,15.66656601,.0000973,53.0405,259.4226,323.1521,36.9427,0,U,45376,999,34954,.28147E-3,.2964E-3,0
STARLINK-1305,2020-019T,2026-07-12T14:04:02.112384,15.76234551,.0007181,53.0345,238.7665,10.8809,349.2365,0,U,45377,999,34978,.33635E-3,.53631E-3,0
STARLINK-1319,2020-019V,2026-07-13T03:50:35.604384,15.84306438,.0004133,53.0327,225.7969,27.5035,332.6206,0,U,45379,999,35001,.33626E-3,.77977E-3,0
STARLINK-1266,2020-019Z,2026-07-13T04:07:20.443296,15.69186295,.0004398,53.0422,243.9412,10.1227,349.9876,0,U,45383,999,34975,.28964E-3,.33909E-3,0
STARLINK-1267,2020-019AA,2026-07-13T03:32:32.303040,15.73833866,.0002619,53.0387,234.6326,40.0498,320.0713,0,U,45384,999,34988,.38045E-3,.54614E-3,0
STARLINK-1272,2020-019AC,2026-07-13T01:37:17.111424,15.78936820,.0002871,53.0349,212.6236,47.5268,312.5995,0,U,45386,999,35018,.40326E-3,.72818E-3,0
STARLINK-1274,2020-019AD,2026-07-12T02:12:02.373696,15.68757812,.00061684,53.0162,218.9728,326.4348,33.6276,0,U,45387,999,35000,.71727452E-3,.83897E-3,0
STARLINK-1280,2020-019AE,2026-07-13T06:00:02.998944,15.92141340,.0006748,53.0290,216.0493,30.2750,144.3489,0,U,45388,999,596,.42589E-3,.142755E-2,.18746E-4
STARLINK-1283,2020-019AF,2026-07-10T16:32:53.022912,15.76045805,.00042287,53.0346,223.7394,359.2854,0.8158,0,U,45389,999,34982,.3590505E-3,.56783E-3,0
STARLINK-1284,2020-019AG,2026-07-13T03:45:24.725088,15.74319164,.0004463,53.0384,235.7816,72.3523,287.7982,0,U,45390,999,34986,.35524E-3,.52041E-3,0
STARLINK-1297,2020-019AM,2026-07-13T04:57:01.658016,15.77458540,.0003708,53.0388,234.2443,29.7746,330.3484,0,U,45395,999,34907,.31404E-3,.5278E-3,0
STARLINK-1307,2020-019AP,2026-07-13T03:53:44.181024,15.59075913,.000219,53.0508,244.4095,1.0216,359.0800,0,U,45397,999,34957,.28132E-3,.2191E-3,0
STARLINK-1255,2020-019AR,2026-07-13T01:12:01.840320,15.69062266,.0001357,53.0298,210.2865,341.4928,18.6038,0,U,45399,999,35002,.34298E-3,.4007E-3,0
STARLINK-1260,2020-019AW,2026-07-12T16:23:23.991648,15.41198310,.0001638,53.1539,264.0800,293.0162,67.0671,0,U,45404,999,34917,.10379E-2,.43581E-3,0
STARLINK-1263,2020-019AX,2026-07-12T12:36:29.863296,15.38214984,.00029329,53.1566,266.8187,303.2515,56.8208,0,U,45405,999,34912,.8138286E-3,.30824E-3,0
STARLINK-1265,2020-019AY,2026-07-13T04:26:38.652576,15.41674073,.0002203,53.1537,261.5967,341.0621,19.0303,0,U,45406,999,34925,.56945E-3,.24049E-3,0
STARLINK-1278,2020-019BA,2026-07-12T13:48:53.498880,15.78577900,.0002967,53.0356,236.0493,40.8247,319.2994,0,U,45408,999,34953,.3126E-3,.55269E-3,0
STARLINK-1296,2020-019BE,2026-07-12T13:44:10.900032,15.41789916,.0001109,53.1534,264.1395,300.0416,60.0480,0,U,45412,999,34916,.87184E-3,.37245E-3,0
STARLINK-1309,2020-019BG,2026-07-12T13:29:50.341344,15.76781272,.0003248,53.0557,230.4876,40.7486,319.3776,0,U,45414,999,34959,.31533E-3,.51402E-3,0
STARLINK-1316,2020-019BH,2026-07-12T15:56:22.364736,15.42143560,.0001252,53.1541,263.5622,303.3793,56.7093,0,U,45415,999,34920,.84355E-3,.36451E-3,0
STARLINK-1286,2020-019BK,2026-07-12T12:25:05.025792,15.68228300,.00065743,53.0425,243.8871,12.8038,347.3144,0,U,45417,999,34969,.36562318E-3,.41346E-3,0
STARLINK-1308,2020-019BM,2026-07-13T05:07:49.429920,15.69281420,.0003606,53.0440,259.5021,121.8367,238.3000,0,U,45419,999,34928,.30096E-3,.35399E-3,0
STARLINK-1329,2020-025A,2026-07-12T00:10:24.980448,15.78177706,.00038986,53.0371,187.1003,21.0854,339.0326,0,U,45531,999,34497,.33968384E-3,.59073E-3,0
