STARLINK-1301           
1 45361U 20019B   26194.01484487  .00130452  00000+0  45455-3 0  9999
2 45361  53.0290 200.0077 0006222  36.0248 324.1194 15.88466514350359
STARLINK-1262           
1 45366U 20019G   26193.58853356  .00044627  00000+0  12136-2 0  9997
2 45366  53.1536 303.1664 0002137 278.1801  81.8960 15.37125174348904
STARLINK-1273           
1 45367U 20019H   26194.19296229  .00056393  00000+0  62811-3 0  9995
2 45367  53.0419 269.5106 0002537 350.1873   9.9090 15.62310559349406
STARLINK-1277           
1 45369U 20019K   26194.21061417  .00040621  00000+0  32346-3 0  9996
2 45369  53.0396 261.2588 0003407  18.5351 341.5789 15.70798940349524
STARLINK-1281           
1 45370U 20019L   26193.58139580  .00038487  00000+0  10221-2 0  9998
2 45370  53.1571 302.6347 0001187 254.5117 105.5756 15.37928291348911
STARLINK-1300           
1 45374U 20019Q   26193.58046670  .00042687  00000+0  11102-2 0  9995
2 45374  53.1571 302.4043 0001782 264.2001  95.8800 15.38524126348918
STARLINK-1302           
1 45375U 20019R   26194.18025368  .00038815  00000+0  30635-3 0  9995
2 45375  53.0430 257.2021 0000823  79.4861 280.6249 15.71037341349579
STARLINK-1304           
1 45376U 20019S   26194.21188637  .00029640  00000+0  28147-3 0  9990
2 45376  53.0405 259.4226 0000973 323.1521  36.9427 15.66656601349548
STARLINK-1305           
1 45377U 20019T   26193.58613556  .00053631  00000+0  33635-3 0  9998
2 45377  53.0345 238.7665 0007181  10.8809 349.2365 15.76234551349780
STARLINK-1319           
1 45379U 20019V   26194.16013431  .00077977  00000+0  33626-3 0  9990
2 45379  53.0327 225.7969 0004133  27.5035 332.6206 15.84306438350016
STARLINK-1266           
1 45383U 20019Z   26194.17176439  .00033909  00000+0  28964-3 0  9990
2 45383  53.0422 243.9412 0004398  10.1227 349.9876 15.69186295349759
STARLINK-1267           
1 45384U 20019AA  26194.14759610  .00054614  00000+0  38045-3 0  9993
2 45384  53.0387 234.6326 0002619  40.0498 320.0713 15.73833866349889
STARLINK-1272           
1 45386U 20019AC  26194.06755916  .00072818  00000+0  40326-3 0  9992
2 45386  53.0349 212.6236 0002871  47.5268 312.5995 15.78936820350184
STARLINK-1274           
1 45387U 20019AD  26193.09169414  .00083897  00000+0  71727-3 0  9995
2 45387  53.0162 218.9728 0006168 326.4348  33.6276 15.68757812350009
STARLINK-1280           
1 45388U 20019AE  26194.25003471  .00142755  18746-4  42589-3 0  9999
2 45388  53.0290 216.0493 0006748  30.2750 144.3489 15.92141340  5969
STARLINK-1283           
1 45389U 20019AF  26191.68950258  .00056783  00000+0  35905-3 0  9996
2 45389  53.0346 223.7394 0004228 359.2854   0.8158 15.76045805349823
STARLINK-1284           
1 45390U 20019AG  26194.15653617  .00052041  00000+0  35524-3 0  9992
2 45390  53.0384 235.7816 0004463  72.3523 287.7982 15.74319164349861
STARLINK-1297           
1 45395U 20019AM  26194.20626919  .00052780  00000+0  31404-3 0  9991
2 45395  53.0388 234.2443 0003708  29.7746 330.3484 15.77458540349074
STARLINK-1307           
1 45397U 20019AP  26194.16231691  .00021910  00000+0  28132-3 0  9992
2 45397  53.0508 244.4095 0002190   1.0216 359.0800 15.59075913349579
STARLINK-1255           
1 45399U 20019AR  26194.05002130  .00040070  00000+0  34298-3 0  9994
2 45399  53.0298 210.2865 0001357 341.4928  18.6038 15.69062266350029
STARLINK-1260           
1 45404U 20019AW  26193.68291657  .00043581  00000+0  10379-2 0  9996
2 45404  53.1539 264.0800 0001638 293.0162  67.0671 15.41198310349170
STARLINK-1263           
1 45405U 20019AX  26193.52534564  .00030824  00000+0  81383-3 0  9997
2 45405  53.1566 266.8187 0002932 303.2515  56.8208 15.38214984349122
STARLINK-1265           
1 45406U 20019AY  26194.18516959  .00024049  00000+0  56945-3 0  9997
2 45406  53.1537 261.5967 0002203 341.0621  19.0303 15.41674073349252
STARLINK-1278           
1 45408U 20019BA  26193.57561920  .00055269  00000+0  31260-3 0  9990
2 45408  53.0356 236.0493 0002967  40.8247 319.2994 15.78577900349531
STARLINK-1296           
1 45412U 20019BE  26193.57234838  .00037245  00000+0  87184-3 0  9990
2 45412  53.1534 264.1395 0001109 300.0416  60.0480 15.41789916349166
STARLINK-1309           
1 45414U 20019BG  26193.56238821  .00051402  00000+0  31533-3 0  9995
2 45414  53.0557 230.4876 0003248  40.7486 319.3776 15.76781272349593
STARLINK-1316           
1 45415U 20019BH  26193.66414774  .00036451  00000+0  84355-3 0  9997
2 45415  53.1541 263.5622 0001252 303.3793  56.7093 15.42143560349203
STARLINK-1286           
1 45417U 20019BK  26193.51741928  .00041346  00000+0  36562-3 0  9993
2 45417  53.0425 243.8871 0006574  12.8038 347.3144 15.68228300349691
STARLINK-1308           
1 45419U 20019BM  26194.21376655  .00035399  00000+0  30096-3 0  9991
2 45419  53.0440 259.5021 0003606 121.8367 238.3000 15.69281420349288
STARLINK-1329           
1 45531U 20025A   26193.00723357  .00059073  00000+0  33968-3 0  9990
2 45531  53.0371 187.1003 0003898  21.0854 339.0326 15.78177706344979
